ONEWEB-0549             
1 56051U 23043F   24243.86126016  .00000048  00000+0  83675-4 0  9998
2 56051  87.9339  14.4503 0001834 102.8381 257.2958 13.21826660 71656
ONEWEB-0550             
1 56052U 23043G   24243.92434516  .00000016  00000+0  68842-5 0  9998
2 56052  87.9338  14.4429 0001661  96.1584 263.9739 13.21822934 71663
ONEWEB-0551             
1 56053U 23043H   24244.37768303  .00000076  00000+0  16742-3 0  9999
2 56053  87.9068  29.5329 0001650 103.9180 256.2133 13.15551042 71213
ONEWEB-0552             
1 56054U 23043J   24243.91803696  .00000057  00000+0  10598-3 0  9996
2 56054  87.9335  14.4538 0001508 102.6477 257.4825 13.21823434 71667
ONEWEB-0553             
1 56055U 23043K   24243.86014158  .00000047  00000+0  90237-4 0  9996
2 56055  87.9167 359.2703 0002212  96.5158 263.6225 13.16595864 72745
ONEWEB-0554             
1 56056U 23043L   24244.37945968 -.00000143  00000+0 -40767-3 0  9997
2 56056  87.9194 359.1904 0001280  82.8456 277.2820 13.16580903 73708
ONEWEB-0555             
1 56057U 23043M   24244.56944846 -.00005371  00000+0 -14090-1 0  9999
2 56057  87.9179 359.1215 0001745  79.4830 280.6498 13.16605092 73730
ONEWEB-0557             
1 56058U 23043N   24244.05171838 -.00000397  00000+0 -10709-2 0  9994
2 56058  87.9163 359.2505 0002304  72.9114 287.2269 13.16592742 73660
